STARLINK-32132          
1 60334U 24136F   26068.43791057 -.00004165  00000+0 -12852-3 0  9998
2 60334  53.1600  77.0019 0001013  72.7160 287.3952 15.30217391 89628
HYPERFIELD-1A           
1 60562U 24149CY  26068.76488211  .00008569  00000+0  30052-3 0  9998
2 60562  97.3842 149.5066 0003865 313.7844  46.3076 15.29681349 86836
